[{"OBJECT_NAME":"LEMUR-2-ALISIA","OBJECT_ID":"2025-009DB","EPOCH":"2026-03-09T17:42:17.671392","MEAN_MOTION":15.01147598,"ECCENTRICITY":0.00065821,"INCLINATION":97.7037,"RA_OF_ASC_NODE":151.6973,"ARG_OF_PERICENTER":159.9869,"MEAN_ANOMALY":200.1615,"EPHEMERIS_TYPE":0,"CLASSIFICATION_TYPE":"U","NORAD_CAT_ID":62706,"ELEMENT_SET_NO":999,"REV_AT_EPOCH":8523,"BSTAR":0.00072005311,"MEAN_MOTION_DOT":9.177e-5,"MEAN_MOTION_DDOT":0},{"OBJECT_NAME":"FENGYUN 1C DEB","OBJECT_ID":"1999-025CKZ","EPOCH":"2026-02-15T20:48:10.966176","MEAN_MOTION":14.69381024,"ECCENTRICITY":0.01433438,"INCLINATION":98.7052,"RA_OF_ASC_NODE":280.8773,"ARG_OF_PERICENTER":16.818,"MEAN_ANOMALY":343.7704,"EPHEMERIS_TYPE":0,"CLASSIFICATION_TYPE":"U","NORAD_CAT_ID":31898,"ELEMENT_SET_NO":999,"REV_AT_EPOCH":66668,"BSTAR":0.00094596182,"MEAN_MOTION_DOT":6.49e-5,"MEAN_MOTION_DDOT":0}]
